STARLINK-3174           
1 51468U 22010N   26068.94284512 -.00000581  00000+0 -18453-4 0  9996
2 51468  53.2172 277.9482 0001259  88.5621 271.5515 15.08835058226551
LEMUR-2-UNTITLED-SC     
1 63351U 25061A   26068.89211098  .00005783  00000+0  33296-3 0  9990
2 63351  97.5556  45.0864 0017373 245.6030 114.3388 15.12695529 52577
